STARLINK-4724           
1 53702U 22107C   26187.04559157  .00059410  00000+0  36708-2 0  9993
2 53702  53.1605  57.4910 0001046  97.6041 262.5069 15.09322389212965
STARLINK-4731           
1 53703U 22107D   26187.10179194 -.00004558  00000+0 -26872-3 0  9997
2 53703  53.1619  72.0868 0001234  84.7029 275.4103 15.08800308212736
STARLINK-4714           
1 53704U 22107E   26187.58336806  .00047588  00000+0  16516-2 0  9996
2 53704  53.1590  69.1759 0001346 121.6929   2.6880 15.29341979  5745
STARLINK-4717           
1 53705U 22107F   26186.94729714 -.00004189  00000+0 -24549-3 0  9998
2 53705  53.1612  73.2548 0001514  96.2299 263.8865 15.08804817212709
STARLINK-4716           
1 53706U 22107G   26187.06501834 -.00001675  00000+0 -87207-4 0  9992
2 53706  53.1603  72.5672 0001218  93.5788 266.5343 15.08823792212720
STARLINK-4667           
1 53707U 22107H   26187.58336806  .00076502  00000+0  42161-2 0  9992
2 53707  53.1606  55.1103 0001517  80.9589 300.3015 15.13328492  5794
STARLINK-4694           
1 53708U 22107J   26187.57159784  .00076466  00000+0  46870-2 0  9990
2 53708  53.1609  55.0893 0002128 129.9421 230.1758 15.09487254213018
STARLINK-4685           
1 53709U 22107K   26186.96329674 -.00000487  00000+0 -12506-4 0  9993
2 53709  53.1627  77.6612 0001590  83.1321 276.9851 15.08834703212330
STARLINK-4627           
1 53711U 22107M   26187.58336806  .00032374  00000+0  93569-3 0  9995
2 53711  53.1718  72.8860 0001081  89.8496 337.7351 15.35377420  5404
STARLINK-4683           
1 53712U 22107N   26187.01481490 -.00001280  00000+0 -62402-4 0  9991
2 53712  53.1611  77.2751 0001892 115.9730 244.1456 15.08808828212360
STARLINK-4686           
1 53715U 22107R   26187.58336806  .00091021  00000+0  35381-2 0  9990
2 53715  53.1588  78.8539 0001317  93.5353 186.3253 15.25296643  5650
STARLINK-4699           
1 53716U 22107S   26187.58336806  .00075920  00000+0  37630-2 0  9990
2 53716  53.1587  79.6634 0002312 115.3300 104.4025 15.17082849  5702
STARLINK-4695           
1 53718U 22107U   26187.58336806  .00073020  00000+0  39396-2 0  9992
2 53718  53.1584  80.3879 0002457  97.5050 106.2066 15.14109729  5758
STARLINK-4644           
1 53719U 22107V   26186.89015779 -.00002001  00000+0 -10773-3 0  9991
2 53719  53.1612  52.9181 0001292  93.8292 266.2847 15.08821598212689
STARLINK-4642           
1 53720U 22107W   26187.58336806  .00101248  00000+0  33026-2 0  9993
2 53720  53.1610  78.5209 0001165  97.9486 352.4823 15.30989384  5655
STARLINK-4707           
1 53721U 22107X   26187.58336806  .00077479  00000+0  37700-2 0  9995
2 53721  53.1586  79.6878 0002245  70.6193 139.8216 15.17718180  5804
STARLINK-4700           
1 53722U 22107Y   26187.58336806  .00077274  00000+0  36481-2 0  9994
2 53722  53.1588  79.6666 0002022  76.1209 144.1439 15.18770579  5801
STARLINK-4705           
1 53723U 22107Z   26187.58336806  .00080897  00000+0  41026-2 0  9991
2 53723  53.1605  79.5379 0001391 125.9649 163.3624 15.16246826  5700
STARLINK-4663           
1 53724U 22107AA  26187.58336806  .00083216  00000+0  34191-2 0  9995
2 53724  53.1586  79.0232 0001441  93.7018  99.2233 15.23483789  5241
STARLINK-4697           
1 53726U 22107AC  26187.58336806  .00080990  00000+0  37570-2 0  9997
2 53726  53.1586  79.6612 0001599  92.8994 131.5027 15.19354196  5805
STARLINK-4701           
1 53727U 22107AD  26187.58336806  .00076724  00000+0  36417-2 0  9997
2 53727  53.1589  79.7437 0002012 128.6950  53.9597 15.18587302  5744
STARLINK-4640           
1 53728U 22107AE  26187.58336806  .00123283  00000+0  37676-2 0  9999
2 53728  53.1598  78.3182 0001606 111.9162  83.8334 15.32961452  5744
STARLINK-4651           
1 53729U 22107AF  26187.12405434 -.00001398  00000+0 -67406-4 0  9994
2 53729  53.1620  82.2083 0001491 102.3600 257.7559 15.09989309212463
STARLINK-4641           
1 53730U 22107AG  26187.58336806  .00110365  00000+0  33237-2 0  9998
2 53730  53.1594  78.6751 0000840  99.0681 273.3947 15.33494360  5240
STARLINK-4636           
1 53731U 22107AH  26187.01660209  .00012187  00000+0  61450-3 0  9996
2 53731  53.2105  77.5606 0005513 130.2482 229.8996 15.17532981212521
STARLINK-4661           
1 53732U 22107AJ  26187.58336806  .00101393  00000+0  35181-2 0  9991
2 53732  53.1591  78.7478 0000996 100.3236 235.1586 15.28985716  5643
STARLINK-4574           
1 53733U 22107AK  26187.58336806  .00052305  00000+0  15927-2 0  9996
2 53733  53.1587  78.2612 0001426  99.2869 127.1311 15.33507349  5791
STARLINK-4616           
1 53734U 22107AL  26187.58336806  .00085136  00000+0  43964-2 0  9997
2 53734  53.1599  80.0626 0001116  77.2308 301.1033 15.15581981  5598
STARLINK-4618           
1 53735U 22107AM  26187.58336806  .00096895  00000+0  32881-2 0  9998
2 53735  53.1594  88.4546 0001446  88.4739  30.1947 15.29734094  5802
STARLINK-4652           
1 53736U 22107AN  26187.58336806  .00089383  00000+0  32850-2 0  9999
2 53736  53.1587  78.9606 0002012  78.2332 149.1612 15.27165849  5794
