OBJECT_NAME,OBJECT_ID,EPOCH,MEAN_MOTION,ECCENTRICITY,INCLINATION,RA_OF_ASC_NODE,ARG_OF_PERICENTER,MEAN_ANOMALY,EPHEMERIS_TYPE,CLASSIFICATION_TYPE,NORAD_CAT_ID,ELEMENT_SET_NO,REV_AT_EPOCH,BSTAR,MEAN_MOTION_DOT,MEAN_MOTION_DDOT
STARLINK-4724,2022-107C,2026-07-06T01:05:39.111648,15.09322389,.00010463,53.1605,57.4910,97.6041,262.5069,0,U,53702,999,21296,.36708364E-2,.5941E-3,0
STARLINK-4731,2022-107D,2026-07-06T02:26:34.823616,15.08800308,.00012349,53.1619,72.0868,84.7029,275.4103,0,U,53703,999,21273,-.26872446E-3,-.4558E-4,0
STARLINK-4714,2022-107E,2026-07-06T14:00:03.000384,15.29341979,.00013464,53.1590,69.1759,121.6929,2.6880,0,U,53704,999,574,.16516032E-2,.47588E-3,0
STARLINK-4717,2022-107F,2026-07-05T22:44:06.472896,15.08804817,.00015149,53.1612,73.2548,96.2299,263.8865,0,U,53705,999,21270,-.24549365E-3,-.4189E-4,0
STARLINK-4716,2022-107G,2026-07-06T01:33:37.584576,15.08823792,.00012187,53.1603,72.5672,93.5788,266.5343,0,U,53706,999,21272,-.87206535E-4,-.1675E-4,0
STARLINK-4667,2022-107H,2026-07-06T14:00:03.000384,15.13328492,.00015176,53.1606,55.1103,80.9589,300.3015,0,U,53707,999,579,.42160984E-2,.76502E-3,0
STARLINK-4694,2022-107J,2026-07-06T13:43:06.053376,15.09487254,.00021283,53.1609,55.0893,129.9421,230.1758,0,U,53708,999,21301,.46870045E-2,.76466E-3,0
STARLINK-4685,2022-107K,2026-07-05T23:07:08.838336,15.08834703,.00015908,53.1627,77.6612,83.1321,276.9851,0,U,53709,999,21233,-.12506078E-4,-.487E-5,0
STARLINK-4627,2022-107M,2026-07-06T14:00:03.000384,15.35377420,.0001081,53.1718,72.8860,89.8496,337.7351,0,U,53711,999,540,.93569091E-3,.32374E-3,0
STARLINK-4683,2022-107N,2026-07-06T00:21:20.007360,15.08808828,.00018925,53.1611,77.2751,115.9730,244.1456,0,U,53712,999,21236,-.62401706E-4,-.128E-4,0
STARLINK-4686,2022-107R,2026-07-06T14:00:03.000384,15.25296643,.00013174,53.1588,78.8539,93.5353,186.3253,0,U,53715,999,565,.35380714E-2,.91021E-3,0
STARLINK-4699,2022-107S,2026-07-06T14:00:03.000384,15.17082849,.0002312,53.1587,79.6634,115.3300,104.4025,0,U,53716,999,570,.37630256E-2,.7592E-3,0
STARLINK-4695,2022-107U,2026-07-06T14:00:03.000384,15.14109729,.00024576,53.1584,80.3879,97.5050,106.2066,0,U,53718,999,575,.39395537E-2,.7302E-3,0
STARLINK-4644,2022-107V,2026-07-05T21:21:49.633056,15.08821598,.0001292,53.1612,52.9181,93.8292,266.2847,0,U,53719,999,21268,-.10773E-3,-.2001E-4,0
STARLINK-4642,2022-107W,2026-07-06T14:00:03.000384,15.30989384,.00011654,53.1610,78.5209,97.9486,352.4823,0,U,53720,999,565,.33026159E-2,.101248E-2,0
STARLINK-4707,2022-107X,2026-07-06T14:00:03.000384,15.17718180,.00022452,53.1586,79.6878,70.6193,139.8216,0,U,53721,999,580,.37699656E-2,.77479E-3,0
STARLINK-4700,2022-107Y,2026-07-06T14:00:03.000384,15.18770579,.00020221,53.1588,79.6666,76.1209,144.1439,0,U,53722,999,580,.36480849E-2,.77274E-3,0
STARLINK-4705,2022-107Z,2026-07-06T14:00:03.000384,15.16246826,.00013918,53.1605,79.5379,125.9649,163.3624,0,U,53723,999,570,.41026352E-2,.80897E-3,0
STARLINK-4663,2022-107AA,2026-07-06T14:00:03.000384,15.23483789,.00014415,53.1586,79.0232,93.7018,99.2233,0,U,53724,999,524,.34190955E-2,.83216E-3,0
STARLINK-4697,2022-107AC,2026-07-06T14:00:03.000384,15.19354196,.00015995,53.1586,79.6612,92.8994,131.5027,0,U,53726,999,580,.37569986E-2,.8099E-3,0
STARLINK-4701,2022-107AD,2026-07-06T14:00:03.000384,15.18587302,.00020123,53.1589,79.7437,128.6950,53.9597,0,U,53727,999,574,.36417056E-2,.76724E-3,0
STARLINK-4640,2022-107AE,2026-07-06T14:00:03.000384,15.32961452,.00016065,53.1598,78.3182,111.9162,83.8334,0,U,53728,999,574,.37676335E-2,.123283E-2,0
STARLINK-4651,2022-107AF,2026-07-06T02:58:38.294976,15.09989309,.0001491,53.1620,82.2083,102.3600,257.7559,0,U,53729,999,21246,-.67406E-4,-.1398E-4,0
STARLINK-4641,2022-107AG,2026-07-06T14:00:03.000384,15.33494360,.00008405,53.1594,78.6751,99.0681,273.3947,0,U,53730,999,524,.33236717E-2,.110365E-2,0
STARLINK-4636,2022-107AH,2026-07-06T00:23:54.420576,15.17532981,.0005513,53.2105,77.5606,130.2482,229.8996,0,U,53731,999,21252,.6145E-3,.12187E-3,0
STARLINK-4661,2022-107AJ,2026-07-06T14:00:03.000384,15.28985716,.00009964,53.1591,78.7478,100.3236,235.1586,0,U,53732,999,564,.35180714E-2,.101393E-2,0
STARLINK-4574,2022-107AK,2026-07-06T14:00:03.000384,15.33507349,.00014269,53.1587,78.2612,99.2869,127.1311,0,U,53733,999,579,.15927093E-2,.52305E-3,0
STARLINK-4616,2022-107AL,2026-07-06T14:00:03.000384,15.15581981,.00011169,53.1599,80.0626,77.2308,301.1033,0,U,53734,999,559,.43964348E-2,.85136E-3,0
STARLINK-4618,2022-107AM,2026-07-06T14:00:03.000384,15.29734094,.00014463,53.1594,88.4546,88.4739,30.1947,0,U,53735,999,580,.32881246E-2,.96895E-3,0
STARLINK-4652,2022-107AN,2026-07-06T14:00:03.000384,15.27165849,.00020129,53.1587,78.9606,78.2332,149.1612,0,U,53736,999,579,.32849998E-2,.89383E-3,0
